NORAD_CAT_ID,OBJECT_NAME,OBJECT_TYPE,EPOCH,MEAN_MOTION,ECCENTRICITY,INCLINATION,RA_OF_ASC_NODE,ARG_OF_PERICENTER,MEAN_ANOMALY,BSTAR,MEAN_MOTION_DOT,MEAN_MOTION_DDOT,TLE_LINE0,TLE_LINE1,TLE_LINE2,SEMIMAJOR_AXIS,PERIOD,APOGEE,PERIGEE,DECAYED
50190.0,STARLINK-3268,PAYLOAD,2022-03-26 14:00:01,15.35500424,0.0001636,53.2176,243.6255,44.7815,86.5919,-0.022234,-0.00718574,0.0,0 STARLINK-3268,1 50190U 21125AL  22085.58334491 -.00718574  00000-0 -22234-1 0  9998,2 50190  53.2176 243.6255 0001636  44.7815  86.5919 15.35500424  3654,6837.571999999999,93.781,460.555,458.318,0.0
50190.0,STARLINK-3268,PAYLOAD,2022-03-26 22:00:00,15.34987327,0.0001483,53.2173,242.0676,56.117,118.5755,-0.022408,-0.0071279,0.0,0 STARLINK-3268,1 50190U 21125AL  22085.91667824 -.00712790  00000-0 -22408-1 0  9991,2 50190  53.2173 242.0676 0001483  56.1170 118.5755 15.34987327  3678,6839.095,93.812,461.974,459.946,0.0
50190.0,STARLINK-3268,PAYLOAD,2022-03-27 06:00:00,15.34478546,0.0001509,53.2174,240.5077,54.4848,162.9145,-0.022838,-0.00714577,0.0,0 STARLINK-3268,1 50190U 21125AL  22086.25001157 -.00714577  00000-0 -22838-1 0  9992,2 50190  53.2174 240.5077 0001509  54.4848 162.9145 15.34478546 18321,6840.607,93.843,463.504,461.44,0.0
50190.0,STARLINK-3268,PAYLOAD,2022-03-27 14:00:01,15.33969385,0.0001607,53.2176,238.9522,50.1407,209.351,-0.023264,-0.00716056,0.0,0 STARLINK-3268,1 50190U 21125AL  22086.58334491 -.00716056  00000-0 -23264-1 0  9996,2 50190  53.2176 238.9522 0001607  50.1407 209.3510 15.33969385  3671,6842.12,93.874,465.085,462.886,0.0
50190.0,STARLINK-3268,PAYLOAD,2022-03-27 22:00:01,15.33459699,0.000133,53.2173,237.3975,61.8402,239.1951,-0.023639,-0.00715861,0.0,0 STARLINK-3268,1 50190U 21125AL  22086.91668981 -.00715861  00000-0 -23639-1 0  9996,2 50190  53.2173 237.3975 0001330  61.8402 239.1951 15.33459699  3672,6843.636,93.905,466.412,464.591,0.0
50190.0,STARLINK-3268,PAYLOAD,2022-03-28 08:00:01,15.32822068,0.0001484,53.2174,235.4531,47.1216,34.8402,-0.024161,-0.0071695,0.0,0 STARLINK-3268,1 50190U 21125AL  22087.33334491 -.00716950  00000-0 -24161-1 0  9990,2 50190  53.2174 235.4531 0001484  47.1216  34.8402 15.32822068 18489,6845.534000000002,93.944,468.415,466.383,0.0
50190.0,STARLINK-3268,PAYLOAD,2022-03-28 14:00:01,15.32441058,0.0001645,53.2177,234.2898,38.3664,343.7917,-0.024523,-0.00718845,0.0,0 STARLINK-3268,1 50190U 21125AL  22087.58335648 -.00718845  00000-0 -24523-1 0  9999,2 50190  53.2177 234.2898 0001645  38.3664 343.7917 15.32441058  3666,6846.669,93.968,469.66,467.408,0.0
50190.0,STARLINK-3268,PAYLOAD,2022-03-28 22:00:00,15.31851629,0.0001358,53.2162,232.7403,39.017,22.7578,-0.020903,-0.00608986,0.0,0 STARLINK-3268,1 50190U 21125AL  22087.91667824 -.00608986  00000-0 -20903-1 0  9992,2 50190  53.2162 232.7403 0001358  39.0170  22.7578 15.31851629  3638,6848.425,94.004,471.22,469.36,0.0
50190.0,STARLINK-3268,PAYLOAD,2022-03-29 14:00:01,15.30858642,0.0001529,53.2167,229.639,57.8296,81.3772,-0.022945,-0.00645335,0.0,0 STARLINK-3268,1 50190U 21125AL  22088.58334491 -.00645335  00000-0 -22945-1 0  9994,2 50190  53.2167 229.6390 0001529  57.8296  81.3772 15.30858642 18689,6851.386,94.065,474.299,472.204,0.0
50190.0,STARLINK-3268,PAYLOAD,2022-03-29 22:00:00,15.30272004,0.0001588,53.216,228.0919,49.0433,128.0142,-0.019793,-0.00546728,0.0,0 STARLINK-3268,1 50190U 21125AL  22088.91667824 -.00546728  00000-0 -19793-1 0  9993,2 50190  53.2160 228.0919 0001588  49.0433 128.0142 15.30272004  3634,6853.137,94.101,476.09,473.914,0.0
50190.0,STARLINK-3268,PAYLOAD,2022-03-30 02:00:01,15.30147078,0.000145,53.217,227.3162,47.2525,328.4046,-0.026387,-0.00719699,0.0,0 STARLINK-3268,1 50190U 21125AL  22089.08334491 -.00719699  00000-0 -26387-1 0  9999,2 50190  53.2170 227.3162 0001450  47.2525 328.4046 15.30147078 18757,6853.51,94.109,476.369,474.381,0.0
50190.0,STARLINK-3268,PAYLOAD,2022-03-30 14:00:01,15.29303178,0.0001613,53.2168,224.9982,71.2058,179.6526,-0.022793,-0.00613053,0.0,0 STARLINK-3268,1 50190U 21125AL  22089.58335648 -.00613053  00000-0 -22793-1 0  9993,2 50190  53.2168 224.9982 0001613  71.2058 179.6526 15.29303178  3639,6856.031,94.161,479.002,476.79,0.0
50190.0,STARLINK-3268,PAYLOAD,2022-03-30 22:00:00,15.28871943,0.0001354,53.217,223.453,66.1181,220.6015,-0.027446,-0.00727924,0.0,0 STARLINK-3268,1 50190U 21125AL  22089.91667824 -.00727924  00000-0 -27446-1 0  9997,2 50190  53.2170 223.4530 0001354  66.1181 220.6015 15.28871943  3681,6857.32,94.187,480.114,478.257,0.0
50190.0,STARLINK-3268,PAYLOAD,2022-03-31 06:00:00,15.28348041,0.0001505,53.2169,221.9089,43.9701,278.1081,-0.026996,-0.00698152,0.0,0 STARLINK-3268,1 50190U 21125AL  22090.25001157 -.00698152  00000-0 -26996-1 0  9996,2 50190  53.2169 221.9089 0001505  43.9701 278.1081 15.28348041 18933,6858.887,94.219,481.785,479.72,0.0
50190.0,STARLINK-3268,PAYLOAD,2022-03-31 14:00:01,15.27757113,0.0001333,53.2168,220.3683,70.1675,286.6927,-0.022956,-0.00590241,0.0,0 STARLINK-3268,1 50190U 21125AL  22090.58334491 -.00590241  00000-0 -22956-1 0  9994,2 50190  53.2168 220.3683 0001333  70.1675 286.6927 15.27757113  3622,6860.656,94.256,483.435,481.606,0.0
50190.0,STARLINK-3268,PAYLOAD,2022-03-31 22:00:00,15.27229165,0.0001318,53.2162,218.828,46.6441,344.3661,-0.023187,-0.00586855,0.0,0 STARLINK-3268,1 50190U 21125AL  22090.91667824 -.00586855  00000-0 -23187-1 0  9993,2 50190  53.2162 218.8280 0001318  46.6441 344.3661 15.27229165 19033,6862.236999999999,94.288,485.006,483.197,0.0
50190.0,STARLINK-3268,PAYLOAD,2022-04-01 14:00:01,15.26320589,0.0001629999999999,53.2174,215.7484,45.0284,52.3269,-0.029574,-0.00725611,0.0,0 STARLINK-3268,1 50190U 21125AL  22091.58334491 -.00725611  00000-0 -29574-1 0  9999,2 50190  53.2174 215.7484 0001630  45.0284  52.3269 15.26320589 19146,6864.96,94.345,487.944,485.706,0.0
50190.0,STARLINK-3268,PAYLOAD,2022-04-01 22:00:00,15.25809798,0.0001440999999999,53.2171,214.2108,57.239,72.4053,-0.029945,-0.00723539,0.0,0 STARLINK-3268,1 50190U 21125AL  22091.91667824 -.00723539  00000-0 -29945-1 0  9994,2 50190  53.2171 214.2108 0001441  57.2390  72.4053 15.25809798  3648,6866.4919999999975,94.376,489.346,487.367,0.0
50190.0,STARLINK-3268,PAYLOAD,2022-04-02 14:00:01,15.24788861,0.0001835,53.2173,211.1397,43.8731,148.57399999999996,-0.030842,-0.00722696,0.0,0 STARLINK-3268,1 50190U 21125AL  22092.58335648 -.00722696  00000-0 -30842-1 0  9995,2 50190  53.2173 211.1397 0001835  43.8731 148.5740 15.24788861 19295,6869.557,94.439,492.682,490.161,0.0
50190.0,STARLINK-3268,PAYLOAD,2022-04-02 22:00:01,15.24280843,0.0001463,53.2171,209.6057,64.5704,158.3263,-0.031457,-0.00725675,0.0,0 STARLINK-3268,1 50190U 21125AL  22092.91668981 -.00725675  00000-0 -31457-1 0  9994,2 50190  53.2171 209.6057 0001463  64.5704 158.3263 15.24280843  3654,6871.083000000001,94.471,493.953,491.943,0.0
50190.0,STARLINK-3268,PAYLOAD,2022-04-03 14:00:01,15.23259406,0.0001773,53.2174,206.5422,42.8743,239.0213,-0.032314,-0.00723216,0.0,0 STARLINK-3268,1 50190U 21125AL  22093.58334491 -.00723216  00000-0 -32314-1 0  9996,2 50190  53.2174 206.5422 0001773  42.8743 239.0213 15.23259406 19441,6874.154,94.534,497.23800000000006,494.8,0.0
50190.0,STARLINK-3268,PAYLOAD,2022-04-03 22:00:00,15.22751704,0.0001368,53.2172,205.0115,63.0625,247.4447,-0.033,-0.00727151,0.0,0 STARLINK-3268,1 50190U 21125AL  22093.91667824 -.00727151  00000-0 -33000-1 0  9997,2 50190  53.2172 205.0115 0001368  63.0625 247.4447 15.22751704  3640,6875.682,94.566,498.48800000000006,496.606,0.0
50190.0,STARLINK-3268,PAYLOAD,2022-04-04 14:00:01,15.217313699999998,0.0001567,53.2174,201.9553,46.2176,319.6747,-0.033968,-0.00726257,0.0,0 STARLINK-3268,1 50190U 21125AL  22094.58334491 -.00726257  00000-0 -33968-1 0  9991,2 50190  53.2174 201.9553 0001567  46.2176 319.6747 15.21731370 19590,6878.755,94.629,501.698,499.542,0.0
50190.0,STARLINK-3268,PAYLOAD,2022-04-04 22:00:00,15.2116049,0.0001486999999999,53.2164,200.4296,42.1645,350.5325,-0.030338,-0.00636383,0.0,0 STARLINK-3268,1 50190U 21125AL  22094.91667824 -.00636383  00000-0 -30338-1 0  9995,2 50190  53.2164 200.4296 0001487  42.1645 350.5325 15.21160490  3615,6880.476,94.665,503.364,501.318,0.0
50190.0,STARLINK-3268,PAYLOAD,2022-04-05 14:00:01,15.20082202,0.0001675,53.2169,197.3803,53.269,31.2357,-0.027615,-0.0056585,0.0,0 STARLINK-3268,1 50190U 21125AL  22095.58335648 -.00565850  00000-0 -27615-1 0  9999,2 50190  53.2169 197.3803 0001675  53.2690  31.2357 15.20082202  3622,6883.729,94.732,506.747,504.441,0.0
50190.0,STARLINK-3268,PAYLOAD,2022-04-05 16:00:00,15.20020325,0.0001655,53.217,196.9996,54.1611,126.5292,-0.031671,-0.00642051,0.0,0 STARLINK-3268,1 50190U 21125AL  22095.66667824 -.00642051  00000-0 -31671-1 0  9998,2 50190  53.2170 196.9996 0001655  54.1611 126.5292 15.20020325 19769,6883.916,94.736,506.921,504.642,0.0
50190.0,STARLINK-3268,PAYLOAD,2022-04-05 22:00:00,15.19689922,0.000158,53.2173,195.8554,48.3548,60.9558,-0.03591,-0.00723274,0.0,0 STARLINK-3268,1 50190U 21125AL  22095.91667824 -.00723274  00000-0 -35910-1 0  9993,2 50190  53.2173 195.8554 0001580  48.3548  60.9558 15.19689922  3672,6884.9140000000025,94.756,507.867,505.691,0.0
50190.0,STARLINK-3268,PAYLOAD,2022-04-06 06:00:02,15.19180321,0.0001651,53.2175,194.3324,48.9731,84.7234,-0.036456,-0.0072343,0.0,0 STARLINK-3268,1 50190U 21125AL  22096.25002315 -.00723430  00000-0 -36456-1 0  9999,2 50190  53.2175 194.3324 0001651  48.9731  84.7234 15.19180321 19853,6886.454000000002,94.788,509.456,507.182,0.0
50190.0,STARLINK-3268,PAYLOAD,2022-04-06 14:00:01,15.18670508,0.0001866,53.2174,192.8138,42.7464,114.5955,-0.037053,-0.00724407,0.0,0 STARLINK-3268,1 50190U 21125AL  22096.58334491 -.00724407  00000-0 -37053-1 0  9997,2 50190  53.2174 192.8138 0001866  42.7464 114.5955 15.18670508  3654,6887.995,94.82,511.145,508.574,0.0
